[{"OBJECT_NAME":"GAOFEN-9 02","OBJECT_ID":"2020-034B","EPOCH":"2026-03-10T00:01:23.433024","MEAN_MOTION":15.24736529,"ECCENTRICITY":0.00138652,"INCLINATION":97.5615,"RA_OF_ASC_NODE":225.1997,"ARG_OF_PERICENTER":60.5372,"MEAN_ANOMALY":299.7247,"EPHEMERIS_TYPE":0,"CLASSIFICATION_TYPE":"U","NORAD_CAT_ID":45625,"ELEMENT_SET_NO":999,"REV_AT_EPOCH":32104,"BSTAR":0.00036092627,"MEAN_MOTION_DOT":8.888e-5,"MEAN_MOTION_DDOT":0},{"OBJECT_NAME":"STARLINK-34127","OBJECT_ID":"2025-092G","EPOCH":"2026-03-09T08:19:44.814144","MEAN_MOTION":15.27615977,"ECCENTRICITY":0.00015372,"INCLINATION":43.0019,"RA_OF_ASC_NODE":174.3639,"ARG_OF_PERICENTER":262.476,"MEAN_ANOMALY":97.5917,"EPHEMERIS_TYPE":0,"CLASSIFICATION_TYPE":"U","NORAD_CAT_ID":63810,"ELEMENT_SET_NO":999,"REV_AT_EPOCH":4856,"BSTAR":0.00094837153,"MEAN_MOTION_DOT":0.00025956,"MEAN_MOTION_DDOT":0}]
